[{"OBJECT_NAME":"STARLINK-36148","OBJECT_ID":"2025-293C","EPOCH":"2026-03-09T11:28:19.264800","MEAN_MOTION":14.9828441,"ECCENTRICITY":0.00029224,"INCLINATION":70.0007,"RA_OF_ASC_NODE":95.0917,"ARG_OF_PERICENTER":268.3794,"MEAN_ANOMALY":91.703,"EPHEMERIS_TYPE":0,"CLASSIFICATION_TYPE":"U","NORAD_CAT_ID":67005,"ELEMENT_SET_NO":999,"REV_AT_EPOCH":1485,"BSTAR":-0.00086095425,"MEAN_MOTION_DOT":-0.00010338,"MEAN_MOTION_DDOT":0},{"OBJECT_NAME":"COSMOS 886 DEB","OBJECT_ID":"1976-126BD","EPOCH":"2026-03-09T07:30:27.749952","MEAN_MOTION":13.37839737,"ECCENTRICITY":0.07700073,"INCLINATION":65.7949,"RA_OF_ASC_NODE":38.8664,"ARG_OF_PERICENTER":118.7434,"MEAN_ANOMALY":249.3183,"EPHEMERIS_TYPE":0,"CLASSIFICATION_TYPE":"U","NORAD_CAT_ID":9963,"ELEMENT_SET_NO":999,"REV_AT_EPOCH":34061,"BSTAR":0.00061461949,"MEAN_MOTION_DOT":1.837e-5,"MEAN_MOTION_DDOT":0}]
